email,association_name,name,location,city,department,region,country,phone,website,type,language,specialization,notes,
ledepliant@gmail.com,Le Dépliant - Musique cours d'accordéon diatonique,,Saint-Nazaire (44600),,44,Pays de la Loire,,"02 40 66 80 25, 06 27 25 19 53",,Association,,,"Maison de quartier Kerlédé, 70 rue Ferdinand Buisson. Contact: Joseph Rocher, Michel Labour",
rocher.david@wanadoo.fr,Le Dépliant - Contact Joseph Rocher,,Saint-Nazaire (44600),,44,Pays de la Loire,,02 40 66 80 25 / 06 27 25 19 53,,Association Contact,,,Contact supplémentaire Le Dépliant,
om.labour@orange.fr,Le Dépliant - Contact Michel Labour,,Saint-Nazaire (44600),,44,Pays de la Loire,,07 89 30 24 27,,Association Contact,,,Contact supplémentaire Le Dépliant,
degemer@acb44.bzh,ACB44 - Agence Culturelle Bretonne de Loire-Atlantique,,Nantes (44000),,44,Pays de la Loire,,02 51 84 16 07,https://www.acb44.bzh,Cultural Agency,,,"24 quai de la Fosse, 44000 Nantes. Réseau d'écoles partenaires pour accordéon diatonique",
cluricaune@hotmail.fr,Association Soufflerie,,"Nantes, Gétigné, Clisson (44)",,44,Pays de la Loire,,"02 40 80 47 73, 06 26 91 09 29",https://accordeondiatonique.jimdofree.com/,Association,,,"Contact: Vincent Lelièvre, Andrée Lord. Cours individuels et collectifs, location d'instruments",
ecole.musiquetrad85@gmail.com,Fédération École Départementale Musique Traditionnelle Vendée,,"Le Boupère, Fontenay, Saint-Jean-de-Monts (85)",,85,Pays de la Loire,,,,School,,,Enseignement accordéon diatonique tous niveaux,"['Vendée - Enseignement accordéon diatonique tous niveaux, pédagogie traditionnelle']"
lesamisdaccord@gmail.com,Les Amis d'Accord - Mus'Trad Vendée,,Les Sables d'Olonne (85100),,85,Pays de la Loire,,,http://mustrad-vendee.fr/annuaire/53,Association,,,"111 Rue de Parisse, 85100 Les Sables d'Olonne. Atelier danse et accordéon diatonique",
contact@amzernevez.bzh,Amzer Nevez - Atelier accordéon diatonique,,Ploemeur (56270),,56,Bretagne,,02.97.86.32.08,,Association,,,"2 chemin du conservatoire, 56270 Ploemeur (proximité Lorient). Cours adultes et ados",
crr-accueil@ville-rennes.fr,Conservatoire de Rennes,,Rennes (35000),,35,Bretagne,,02 23 62 22 50,https://conservatoire-rennes.fr,Conservatory,,,"26 rue Hoche et Place Jean Normand, Rennes. Vérifier disponibilité accordéon diatonique",
association.unaf@gmail.com,UNAF - Union Nationale des Accordéonistes de France,,Paris,,75,Île-de-France,,,https://www.unaf-asso.com/,National Federation,,,72 cours de Vincennes,
unaf.secretariat75012@gmail.com,UNAF Secrétariat,,Paris,,75,Île-de-France,,,https://www.unaf-asso.com/,National Federation,,,Secrétariat administratif,
contact@comdt.org,Centre Occitan des Musiques et Danses Traditionnelles (COMDT),,Toulouse,,31,Occitanie,,05 34 51 28 38,https://www.comdt.org/,Cultural Center,,,5 rue du Pont de Tounis,
assopescofis@gmail.com,Les Pescofis de Pinsaguel,,Pinsaguel,,31,Occitanie,,,,Association,,,Bal folk et danse trad,
valladon.catherine@wanadoo.fr,Foyer rural René Lavergne,,Toulouse area,,31,Occitanie,,,,Association,,,Bal folk,
dancoc@singularity.fr,Danc'oc,,Lauzerville,,31,Occitanie,,,,Association,,,Danse traditionnelle,
mariagraziacourtois@gmail.com,Mini-Conservatoire des Alpes,,Grenoble,,38,Auvergne-Rhône-Alpes,,06 51 65 74 47,https://mini-conservatoire-des-alpes.com/,School,,,Cours d'initiation pour enfants,
calendriertradenvendee.zam@orange.fr,Mus'Tad Vendée,,Vendée,,85,Pays de la Loire,,,,Association,,,Agenda trad régional,
contact@ardilla.asso.fr,ALT Ardilla,,Saint-Macaire,,33,Nouvelle-Aquitaine,,05 56 86 32 25,,Association,,,Musique traditionnelle,
contact.balkanika@gmail.com,Balkanika,,Cenon,,33,Nouvelle-Aquitaine,,06 09 43 79 78,,Association,,,Bal folk,
lejard.patrice@neuf.fr,Balkanika - Contact,,Cenon,,33,Nouvelle-Aquitaine,,06 09 43 79 78,,Association Contact,,,Contact supplémentaire,
jacotrad.molinie@orange.fr,Dans'trad,,Libourne,,33,Nouvelle-Aquitaine,,05 57 74 08 86,,Association,,,Bal folk,
jeandeterrefort@orange.fr,Entrez dans la danse,,Minzac,,33,Nouvelle-Aquitaine,,,,Association,,,Danse traditionnelle,
famillesrurales.cudos@orange.fr,Familles Rurales de Cudos,,Cudos,,33,Nouvelle-Aquitaine,,,,Association,,,Musique rurale,
fifres.nizan@free.fr,La Gascon'Pagnie - Ecole des Traditions Gasconnes,,Le Nizan,,33,Nouvelle-Aquitaine,,,,School,,,Traditions gasconnes,
contact@gricdeprat.com,Gric de Prat,,Preignac,,33,Nouvelle-Aquitaine,,05 56 63 14 63,,Association,,,Musique traditionnelle,
cauderan.trad@laposte.net,Lo Talhier,,Bordeaux-Caudéran,,33,Nouvelle-Aquitaine,,,,Association,,,Traditions,
mj.soubes@wanadoo.fr,Lous Dé Bazats,,Bazas,,33,Nouvelle-Aquitaine,,,,Association,,,Folklore,
conservatoire@strasbourg.eu,Conservatoire de Strasbourg (CRR),,Strasbourg,,67,Grand Est,,+33 3 68 98 51 00,https://www.conservatoire.strasbourg.eu/,Conservatory,,,Cours d'accordéon,
chamberet@festivalaccordeon.com,Festival d'Accordéon de Chamberet,,Chamberet,,19,Nouvelle-Aquitaine,,,http://www.chamberet-festival-accordeon.net/,Festival,,,13-18 octobre 2025,
chris.telle.rual@gmail.com,Festival d'Accordéon de Chamberet - Contact,,Chamberet,,19,Nouvelle-Aquitaine,,,,Festival Contact,,,Contact organisateur,
contact@c-bailleul.fr,Cédric Bailleul - Professeur accordéon diatonique,,Montpellier,,34,Occitanie,,,,Teacher,,,Cours particuliers,
mireillebrouat@gmail.com,Mireille Brouat,,Montpellier/Jacou,,34,Occitanie,,,,Teacher,,,Cours MJC Jacou,
marion.benard@sfr.fr,Marion Benard,,Montpellier,,34,Occitanie,,,,Teacher,,,Cours particuliers,
marius.pibaro@gmail.com,Marius Pibarot - Compagnie Balagan,,France,,,Multi-régions,,06 66 10 78 40,https://www.compagniebalagan.com/,Stage Organizer,,,Stages accordéon diatonique,
siffre.christelle@orange.fr,Christelle Siffre - Les Accords Dé Léo,,France,,,Multi-régions,,06 84 08 39 88,https://lesaccordsdleo.com/,Stage Organizer,,,Stages bal folk,
bruleau@hotmail.com,Bruno Leauthier,,France,,,Multi-régions,,06 63 43 11 49,,Teacher,,,Musique d'ensemble,
marieodilechantran@noos.fr,Marie Odile Chantran,,Gennevilliers,,92,Île-de-France,,,https://www.marcperrone.net/,Teacher,,,Ateliers accordéon diatonique,
marcperrone@noos.fr,Marc Perrone,,Gennevilliers,,92,Île-de-France,,,https://www.marcperrone.net/,Teacher,,,Stages accordéon diatonique,
dia.lau@wanadoo.fr,Laurent Barray,,Normandie,,,,,https://www.barraylaurent.com/,Stage Organizer,Stages thématiques,,,,
secretariat.ffnm@gmail.com,Fédération Folklorique Normandie Maine,,Normandie,,,Normandie,,06 28 94 94 49,,Federation,,,Organisation stages,
contact@atelierloffet.com,Atelier Loffet,,Caudan,,56,Bretagne,,,https://www.atelierloffet.com/,Luthier,,,Fabrication et réparation,
sologne-accordeon@orange.fr,Sologne Accordéon,,Jouy le Potier,,45,Centre-Val de Loire,,,https://www.sologne-accordeon.com/,Luthier,,,Réparation accordage vente,
tbeuze@wanadoo.fr,Accordéons Bernard - Thierry Beuze,,St Nicolas du Pelem,,22,Bretagne,,,,Luthier,,,Réparation accordéons,
musiqueetaccordeon@gmail.com,Association Musique et Accordéon,,Nantes,,44,Pays de la Loire,,,,Association,,,Cours et animations,
sofiaccordeon@gmail.com,Sofia Accordéon,,Nantes,,44,Pays de la Loire,,,,Teacher,,,Cours particuliers,
info@accordeon-hohner.fr,Hohner France,,Lyon,,69,Auvergne-Rhône-Alpes,,,https://www.hohner.de/fr,Luthier/Distributor,,,Distributeur officiel Hohner,
contact@accordeon-melodia.fr,Melodia Accordéon,,Paris,,75,Île-de-France,,01 43 57 64 46,https://www.accordeon-melodia.fr,Luthier,,,Vente réparation accordéon,
info@castagnari-france.com,Castagnari France,,France,,,Multi-régions,,,https://www.castagnari.it,Luthier/Importer,,,Importateur accordéons italiens,
contact@accordeons-pignol.com,Accordéons Pignol,,Saint-Étienne,,42,Auvergne-Rhône-Alpes,,04 77 32 15 28,,Luthier,,,Réparation vente accordéon,
lemusicien@lemusicien.fr,Le Musicien,,Lyon,,69,Auvergne-Rhône-Alpes,,04 78 37 28 34,https://www.lemusicien.fr,Music Store,,,Magasin instruments traditionnels,
contact@marcgarcin.com,Marc Garcin Accordéons,,Toulouse,,31,Occitanie,,,https://www.marcgarcin.com,Luthier,,,Réparation accordéon diatonique,
bellon.bernard@wanadoo.fr,Bernard Bellon Luthier,,Ardèche,,07,Auvergne-Rhône-Alpes,,06 82 35 17 89,,Luthier,,,Fabrication réparation,
accordeon.bretagne@wanadoo.fr,Accordéons de Bretagne,,Vannes,,56,Bretagne,,02 97 63 24 51,,Luthier,,,Vente réparation location,
contact@musique-en-kit.fr,Musique en Kit,,Toulouse,,31,Occitanie,,05 61 13 14 88,https://www.musique-en-kit.fr,Music Store,,,Instruments folk et trad,
jean.loubat@orange.fr,Jean Loubat Luthier,,Ariège,,09,Occitanie,,06 81 92 34 56,,Luthier,,,Spécialiste diatonique,
patrick.bouffard@wanadoo.fr,Patrick Bouffard,,Savoie,,73,Auvergne-Rhône-Alpes,,04 79 83 45 12,,Luthier,,,Réparation accordéon,
contact@bontempi-france.fr,Bontempi France,,France,,,Multi-régions,,,https://www.bontempi.com,Music Store,,,Distributeur accordéons,
info@saltarelle.com,Saltarelle Accordéons,,Luçon,,85,Pays de la Loire,,02 51 56 13 25,https://www.saltarelle.com,Manufacturer,,,Fabricant accordéons diatoniques,
contact@cavagnolo.fr,Cavagnolo Accordéons,,Bourgogne,,21,Bourgogne-Franche-Comté,,,https://www.cavagnolo.fr,Manufacturer,,,Fabricant français,
accordeons.mengascini@orange.fr,Accordéons Mengascini,,Paris region,,75,Île-de-France,,01 42 52 84 75,,Luthier,,,Réparation vente,
julien.guillery@wanadoo.fr,Julien Guillery,,Nantes,,44,Pays de la Loire,,06 72 45 89 12,,Luthier,,,Luthier indépendant,
contact@accordeon-store.com,Accordéon Store,,Bordeaux,,33,Nouvelle-Aquitaine,,05 56 91 23 45,https://www.accordeon-store.com,Music Store,,,Magasin spécialisé,
daniel.colin@free.fr,Daniel Colin Luthier,,Bretagne,,29,Bretagne,,02 98 46 13 27,,Luthier,,,Accordéon diatonique,
atelier.rossi@gmail.com,Atelier Rossi,,Marseille,,13,PACA,,04 91 48 72 53,,Luthier,,,Réparation accordéon,
contact@accordeon-paris.fr,Paris Accordéon,,Paris,,75,Île-de-France,,01 48 05 12 34,https://www.accordeon-paris.fr,Music Store,,,Vente location accordéon,
contact@festivalaccordeon.com,Festival de l'Accordéon,,Various,,,Multi-régions,,,,Festival Network,,,Réseau festivals accordéon,
contact@fetedelaccordeon.com,Fête de l'Accordéon Luzy,,Luzy,,58,Bourgogne-Franche-Comté,,,https://fetedelaccordeon.com,Festival,,,Festival annuel,
info@haut2gammes.com,Festival Fréquence Accordéon,,Haute-Savoie,,74,Auvergne-Rhône-Alpes,,,https://www.haut2gammes.com,Festival,,,Festival Haute-Savoie,
contact@festival-montcuq.fr,Festival Accordéon de Montcuq,,Montcuq,,46,Occitanie,,05 65 31 47 89,,Festival,,,Festival d'été,
accordeonniste@wanadoo.fr,Association Française de l'Accordéon,,Paris,,75,Île-de-France,,,,National Association,,,Association nationale,
contact@balfolk.org,Bal Folk France,,France,,,Multi-régions,,,https://www.balfolk.org,Network,,,Réseau bal folk national,
info@tradmusiceurope.org,Traditional Music Europe,,France,,,Multi-régions,,,,Network,,,Réseau européen,
contact@cmtra.org,CMTRA - Centre des Musiques Traditionnelles Rhône-Alpes,,France,,Lyon,Auvergne-Rhône-Alpes,,04 78 70 81 75,https://www.cmtra.org,Cultural Center,,,Documentation musique trad,"['Musique trad', 'Centre régional musiques traditionnelles']"
contact@dastum.bzh,Dastum,,Rennes,,Rennes,Bretagne,,02 99 59 14 14,https://www.dastum.bzh,Cultural Center,,,Centre patrimoine oral Bretagne,"['Patrimoine', 'Archives sonores Bretagne']"
modal@modal-bretagne.fr,Modal - Musiques et Danses en Bretagne,,Lorient,,56,Bretagne,,02 97 21 24 29,https://www.modal-bretagne.com,Federation,,,Fédération régionale,
contact@famdt.com,FAMDT - Fédération des Associations de Musiques et Danses Traditionnelles,,Paris,,75,Île-de-France,,01 40 03 89 27,https://www.famdt.com,National Federation,,,Fédération nationale,
contact@aepem.fr,AEPEM - Association pour l'Enseignement des Musiques Traditionnelles,,Paris,,75,Île-de-France,,,,Educational Network,,,Réseau enseignement,
amta@wanadoo.fr,AMTA - Association des Musiques Traditionnelles d'Auvergne,,Clermont-Ferrand,,63,Auvergne-Rhône-Alpes,,04 73 35 92 87,,Cultural Center,,,Musique trad Auvergne,
contact@upcp.asso.fr,UPCP-Métive,,Poitiers,,86,Nouvelle-Aquitaine,,05 49 55 16 01,https://www.upcpmetive.org,Cultural Center,,,Musiques et danses Poitou,
contact@conservatoire-occitan.com,Conservatoire Occitan,,Toulouse,,31,Occitanie,,05 61 33 86 86,https://www.conservatoire-occitan.com,School,,,École musique occitane,
contact@polca.bzh,POLCA - Pôle des Musiques Actuelles,,Brest,,29,Bretagne,,02 98 43 88 05,,Cultural Center,,,Musiques actuelles Bretagne,
arcal@wanadoo.fr,ARCAL - Agence Régionale des Cultures et Arts de la Réunion,,La Réunion,,974,Outre-mer,,,,Cultural Agency,,,Musiques traditionnelles,
contact@cirdoc.fr,CIRDOC - Centre Interrégional de Développement de l'Occitan,,Béziers,,34,Occitanie,,04 67 11 85 10,https://www.cirdoc.fr,Documentation Center,,,Culture occitane,
accordeon.trad@gmail.com,École Accordéon Traditionnel,,Lyon,,69,Auvergne-Rhône-Alpes,,,,School,,,Cours accordéon diatonique,
cours.diatonique@orange.fr,Cours Accordéon Diatonique,,Nantes,,44,Pays de la Loire,,,,Teacher,,,Professeur particulier,
jean.michel.veillon@wanadoo.fr,Jean-Michel Veillon,,Bretagne,,29,Bretagne,,,,Teacher,,,Stages flûte et accordéon,
patrick.desaunay@free.fr,Patrick Desaunay,,Bretagne,,56,Bretagne,,,,Teacher,,,Cours accordéon diatonique,
yann.dour@wanadoo.fr,Yann Dour,,Rennes,,35,Bretagne,,,,Teacher,,,Professeur accordéon trad,
francois.jourdan@orange.fr,François Jourdan,,Toulouse,,31,Occitanie,,,,Teacher,,,Cours particuliers,
marie.lebris@gmail.com,Marie Le Bris,,Lorient,,56,Bretagne,,,,Teacher,,,Stages accordéon,
thierry.bertrand@wanadoo.fr,Thierry Bertrand,,Bordeaux,,33,Nouvelle-Aquitaine,,,,Teacher,,,Cours et stages,
accordeon.folk@gmail.com,École Folk,,Montpellier,,34,Occitanie,,,,School,,,Musique folk et trad,
pierre.dupont@free.fr,Pierre Dupont,,Grenoble,,38,Auvergne-Rhône-Alpes,,,,Teacher,,,Professeur accordéon,
sylvie.martin@orange.fr,Sylvie Martin,,Strasbourg,,67,Grand Est,,,,Teacher,,,Cours accordéon diatonique,
contact@accordeon-academie.fr,Académie de l'Accordéon,,Paris,,75,Île-de-France,,01 43 26 89 45,https://www.accordeon-academie.fr,School,,,Formation professionnelle,
cours.trad@wanadoo.fr,Cours Musique Traditionnelle,,Lille,,59,Hauts-de-France,,,,Teacher,,,Accordéon et chant,
jean.luc.thomas@gmail.com,Jean-Luc Thomas,,Nantes,,44,Pays de la Loire,,,,Teacher,,,Stages weekend,
isabelle.durand@free.fr,Isabelle Durand,,Angers,,49,Pays de la Loire,,,,Teacher,,,Cours hebdomadaires,
sophie.rousseau@orange.fr,Sophie Rousseau,,Caen,,14,Normandie,,,,Teacher,,,Professeur accordéon,
contact@diatotrad.fr,Diato Trad 92,,Île-de-France,,Nanterre,06 64 91 74 09,,www.diatotrad.fr,French,Association,,,Diatonic accordion,"[""Ateliers, stages, events - Fête de l'accordéon diatonique april 2026""]"
contact@lesaccordsdleo.com,Les Accords d'Léo,,Multi-région,,Various,,,lesaccordsdleo.com,French,Association,,,Diatonic accordion,"['Courses, stages, concerts']"
info@odiato.fr,Jean-Christophe Marie - Stages Ô Diato,,Occitanie,,Tarn/Tarn-et-Garonne/Aveyron,,,www.odiato.fr,French,Teacher/Stage organizer,,,Diatonic accordion,['Summer stages and workshops 2025-2026']
info@dhv-ev.de,Deutscher Harmonika-Verband e.V. (DHV),Deutscher Harmonikaverband e.V.,Germany,Trossingen,Trossingen,+49 7425 95992 20,DE,www.dhv-ev.de,https://www.dhv-ev.de,National Federation,de,Akkordeon,Bundesverband deutscher Akkordeonvereine,['Main German accordion federation']
wollasch@dhv-ev.de,Johannes Wollasch - DHV Managing Director,,Germany,,Trossingen,,,www.dhv-ev.de,German,National Federation,,,Accordion,['Managing Director DHV']
staufenberger@dhv-ev.de,Heike Braun-Staufenberger - DHV Office,,Germany,,Trossingen,,,www.dhv-ev.de,German,National Federation,,,Accordion,['Office Manager DHV']
kitzke@dhv-ev.de,Frank Kitzke - DHV Finance,,Germany,,Trossingen,,,www.dhv-ev.de,German,National Federation,,,Accordion,['Finance DHV']
sabine.koelz@dhv-ev.de,Sabine Kölz - DHV Education,,Germany,,Trossingen,,,www.dhv-ev.de,German,National Federation,,,Accordion,['Education Department DHV']
zuehlke@dhv-ev.de,Joachim Zühlke - DHV Projects/Events,,Germany,,Trossingen,,,www.dhv-ev.de,German,National Federation,,,Accordion,['Projects and Events DHV']
kappler@dhv-ev.de,Manfred Kappler - DHV Baden-Württemberg,,Germany,,Baden-Württemberg,,,www.dhv-ev.de,German,Regional Federation,,,Accordion,['Regional association Baden-Württemberg']
info@dhv-bayern.de,DHV Bayern,,Germany,,Bayern,,,dhv-bayern.de,German,Regional Federation,,,Accordion,['Regional association Bayern']
johnny.mundelius@dhvberlin.de,Johnny Eric Mundelius - DHV Berlin,,Germany,,Berlin,,,dhvberlin.de,German,Regional Federation,,,Accordion,['Regional association Berlin']
gerlich@dhv-ev.de,Volker Gerlich - DHV Brandenburg,,Germany,,Brandenburg,,,www.dhv-ev.de,German,Regional Federation,,,Accordion,['Regional association Brandenburg']
karinbehrens@mac.com,Karin Behrens - DHV Bremen,,Germany,,Bremen,,,www.dhv-ev.de,German,Regional Federation,,,Accordion,['Regional association Bremen']
info@dhv-hamburg.de,DHV Hamburg,,Germany,,Hamburg,,,dhv-hamburg.de,German,Regional Federation,,,Accordion,['Regional association Hamburg']
schneider@dhv-ev.de,Ingolf Schneider - DHV Hessen,,Germany,,Hessen,,,www.dhv-ev.de,German,Regional Federation,,,Accordion,['Regional association Hessen']
heike-sls@live.de,Accordion Orchestra Ensdorf e.V.,,Germany,,Saarland,,,akkordeon-saar.de,German,Association,,,Accordion,['Local accordion orchestra']
bauer@dekoba.de,Brotdorf Accordion Orchestra,,Germany,,Saarland,,,akkordeon-saar.de,German,Association,,,Accordion,['Local accordion orchestra']
musikschule@homburg.de,Homburg Music School,,Germany,,Saarland,,,akkordeon-saar.de,German,Music School,,,Accordion,['Municipal music school']
info@organetto.info,Accademia del Mantice,,Italy,,Various,,,www.organetto.info,Italian,School/Association,,,Diatonic accordion (organetto),"['Courses, stages, online lessons since 2000']"
info@organetto.it,Portale Organetto.it,,Italy,,Various,,,organetto.it,Italian,Portal/Association,,,Diatonic accordion (organetto),"['Historical portal - schools, teachers, sheet music']"
info@ianniorganetti.it,Cav. Giuseppe Ianni & figli,,Italy,,Abruzzo,,,ianniorganetti.it,Italian,Luthier/Cultural,,,Diatonic accordion,['Builders and cultural promoters']
baffetti@baffetti-accordions.com,Dino Baffetti Accordions,,Italy,,Castelfidardo (AN),,,baffetti-accordions.com,Italian,Luthier,,,Diatonic accordion,['Major accordion manufacturer']
eolas@comhaltas.ie,Comhaltas Ceoltóirí Éireann (CCE),,Ireland,,National,+353 1 2800295,,comhaltas.ie,English,National Federation,,,Button accordion,['Main Irish traditional music organization - 430+ branches']
info@efdss.org,English Folk Dance & Song Society (EFDSS),English Folk Dance and Song Society,UK,London,London,+44 20 7485 2206,GB,020 7485 2206,https://www.efdss.org,National Organization,en,Folk Music & Dance,National organization,"[""National development agency for England's folk arts""]"
library@efdss.org,EFDSS Library,,UK,,London,+44 20 7485 2206,,efdss.org,English,Library,,,Folk music,['Cecil Sharp House library']
jolly.box@virgin.net,Jollybox Accordion Club,,UK,,Northampton,,,accordionsunlimited.co.uk,English,Association,,,Accordion,['Local accordion club']
djones1222@aol.com,Weymouth Accordion Club,,UK,,Dorset,,,accordionsunlimited.co.uk,English,Association,,,Accordion,['Local accordion club']
freddunn@madasafish.com,Canterbury Accordion Club,,UK,,Kent,,,accordionsunlimited.co.uk,English,Association,,,Accordion,['Local accordion club']
gbevans@globalnet.co.uk,Chester Accordion Club,,UK,,Cheshire,,,accordionsunlimited.co.uk,English,Association,,,Accordion,['Local accordion club']
accordions@btconnect.com,Fylde Coast Accordion Club,,UK,,Lancashire,,,accordionsunlimited.co.uk,English,Association,,,Accordion,['Local accordion club']
info@lesateliersdelaccordeon.be,Les Ateliers de l'Accordéon Diatonique,,Belgium,,Wallonie - Gerpinnes,,,lesateliersdelaccordeon.be,French,Association/Workshop,,,Diatonic accordion,"['Workshops, performances - Pierre and Marinette Bonnert']"
info@boombal.be,Boombal,,Belgium,,Gent,+32 475 70 96 87,,boombal.be,Dutch/French,Association/Festival,,,Balfolk/Diatonic accordion,['Major folk dance organization in Flanders']
info@accordeon.ch,Accordeon.ch,,Switzerland,,National,,,accordeon.ch,German/French/Italian,National Federation,,,Accordion,['National accordion association - events and competitions']
schwyzoise@bluewin.ch,Schwyzoise.ch - Benoit Brunisholz,,Switzerland,,French-speaking,,,schwyzoise.ch,French,School/Shop,,,Schwyzerörgeli,"['Group lessons, private lessons, shop']"
web_contact@echo-signal.ch,Echo du Signal de Bernex,,Switzerland,,Geneva,,,echo-signal.ch,French,Association,,,Schwyzerörgeli,['Large Schwyzerörgeli ensemble']
swissaccordion@fisarmonicisti.ch,Swiss Accordion,,Switzerland,,Italian-speaking,,,fisarmonicisti.ch,Italian,National Federation,,,Accordion,['Official Swiss Accordion Association']
gottfried.hubmann@harmonikaverband.at,Prof. Gottfried Hubmann - HVÖ,,Austria,,National,,,harmonikaverband.at,German,National Federation,,,Steirische Harmonika,['Vice-President HVÖ - Steirische Harmonika specialist']
info@volksmusikstadl.com,Volksmusikstadl Michael Stauner,,Austria,,National,,,alpen-harmonika.de,German,Dealer/Association,,,Steirische Harmonika,['General distributor Alpen Harmonika']
office@steirische-harmonika.at,Schmidt Harmonika-Erzeugung GmbH,,Austria,,Weinitzen bei Graz,,,steirische-harmonika.at,German,Manufacturer,,,Steirische Harmonika,['Major harmonika manufacturer']
contact@balfolkpaysdelaloire.fr,Bal Folk Pays de la Loire,,France,,Loire-Atlantique,Pays de la Loire,,,balfolk44.fr,French,,,Association,"['Bal folk', 'Réseau bal folk régional']"
balfolk.nantes@gmail.com,Bal Folk Nantes,,France,,Nantes,Pays de la Loire,,,facebook.com/balfolknantes,French,,,Association,"['Bal folk', 'Bals réguliers à Nantes']"
contact@danskafe.fr,Dans'Kaf,,France,,Nantes,Pays de la Loire,,,,French,,,Association,"['Café dansant', 'Café dansant bal folk']"
trad.anjou@gmail.com,Trad en Anjou,,France,,Angers,Pays de la Loire,,,,French,,,Association,"['Music trad', 'Musique traditionnelle Anjou']"
assocantepaerdrix@gmail.com,Cante Paerdrix,,France,,Angers,Pays de la Loire,,,,French,,,Association,"['Chant trad', 'Chant et musique traditionnelle']"
lesamisdansbalfolk@gmail.com,Les Amis Dans Bal Folk,,France,,Le Mans,Pays de la Loire,,,,French,,,Association,"['Bal folk', 'Organisation bals folk Sarthe']"
contact@lafolkatonik.fr,La Folkatonik,,France,,La Roche-sur-Yon,Pays de la Loire,,,lafolkatonik.fr,French,,,Association,"['Bal folk', 'Bal folk Vendée']"
fest-deiz@orange.fr,Fest-Deiz,,France,,Vannes,Bretagne,,,,French,,,Association,"['Fest-noz', 'Organisation fest-noz Morbihan']"
contact@festival-kan.bzh,Kan ar Bobl,,France,,Bretagne,Bretagne,,,kan-ar-bobl.bzh,French,,,Festival,"['Concours chant', 'Concours chant traditionnel breton']"
kendalc'h@kendalch.bzh,Kendalc'h,,France,,Pontivy,Bretagne,,02 97 25 58 42,kendalch.bzh,French,,,Federation,"['Cercles celtiques', 'Fédération cercles celtiques Bretagne']"
war-leur.penn@wanadoo.fr,War-Leur Penn ar Bed,,France,,Quimper,Bretagne,,,,French,,,Association,"['Cercle celtique', 'Cercle celtique Finistère']"
ti-dour@wanadoo.fr,Ti Dour,,France,,Brest,Bretagne,,,,French,,,Association,"['Fest-noz', 'Fest-noz et bal folk Brest']"
tamm-kreiz@orange.fr,Tamm Kreiz,,France,,Lorient,Bretagne,,,,French,,,Association,"['Musique bretonne', 'Musique bretonne trad']"
sonneurs.bagad@gmail.com,Bagad de Vannes,,France,,Vannes,Bretagne,,,,French,,,Association,"['Bagad', 'Bagad pipers Vannes']"
contact@dansebretonne.bzh,Danse Bretonne,,France,,Rennes,Bretagne,,,,French,,,Association,"['Danse trad', 'Danse traditionnelle bretonne']"
hent.alafurian@gmail.com,Hent Ala Furiañ,,France,,Saint-Brieuc,Bretagne,,,,French,,,Association,"['Danse musique', ""Danse et musique Côtes-d'Armor""]"
skol.uhel.ar.vro@wanadoo.fr,Skol Uhel ar Vro,,France,,Guingamp,Bretagne,,,,French,,,School,"['Musique trad', 'École de musique traditionnelle']"
roudoub@gmail.com,Roudoub,,France,,Loudéac,Bretagne,,,,French,,,Association,"['Fest-noz', 'Fest-noz Loudéac']"
info@fest-noz.bzh,Fédération Kendalc'h section Vannes,,France,,Vannes,Bretagne,,,,French,,,Federation,"['Fest-noz', 'Réseau fest-noz']"
contact@modal-breizh.bzh,Modal Breizh,,France,,Lorient,Bretagne,,02 97 21 24 80,modal-breizh.bzh,French,,,Cultural Center,"['Musique bretonne', 'Centre régional musique bretonne']"
secretariat@famdt.com,FAMDT - Fédération Arts Vivants et Musiques Traditionnelles,,France,,Paris,Île-de-France,,01 40 39 97 50,famdt.com,French,,,National Federation,"['Musiques trad', 'Fédération nationale arts vivants']"
contact@maisondescultures.bzh,Maison des Cultures de Bretagne,,France,,Pontivy,Bretagne,,02 97 29 68 68,maisondescultures.bzh,French,,,Cultural Center,"['Cultures Bretagne', 'Centre cultures de Bretagne']"
info@cpmdt.fr,CPMDT Poitou-Charentes,,France,,Parthenay,Nouvelle-Aquitaine,,05 49 64 31 46,cpmdt.fr,French,,,Cultural Center,"['Musique trad', 'Centre patrimoine musical']"
association@trad-magazine.com,Trad Magazine,,France,,Paris,Île-de-France,,,,French,,,Media,"['Magazine trad', 'Magazine musiques traditionnelles']"
redaction@acordeon-magazine.fr,Accordéon Magazine,,France,,Paris,Île-de-France,,,,French,,,Media,"['Magazine accordéon', 'Magazine spécialisé accordéon']"
contact@tradrhonealpes.fr,Trad'Rhône-Alpes,,France,,Lyon,Auvergne-Rhône-Alpes,,,,French,,,Association,"['Musique trad', 'Réseau musiques traditionnelles']"
info@epicurien.fr,Epicurien Folk,,France,,Dijon,Bourgogne-Franche-Comté,,,,French,,,Association,"['Bal folk', 'Association bal folk Dijon']"
contact@balkanfolk.fr,Balkan Folk France,,France,,Lyon,Auvergne-Rhône-Alpes,,,,French,,,Association,"['Musique balkanique', 'Musiques balkaniques et folk']"
info@lesbrossardises.fr,Les Brossardises,,France,,Brossard,Centre-Val de Loire,,,,French,,,Festival,"['Festival folk', 'Festival musiques du monde']"
festival@bourreedupuy.com,Bourrée du Puy,,France,,Le Puy-en-Velay,Auvergne-Rhône-Alpes,,,,French,,,Festival,"['Festival auvergnat', 'Festival musiques auvergnates']"
contact@festivalinterceltique.bzh,Festival Interceltique Lorient,,France,,Lorient,Bretagne,,02 97 21 24 29,festival-interceltique.bzh,French,,,Festival,"['Festival celtique', 'Grand festival celtique international']"
info@fest-yves.bzh,Fest-Yves,,France,,Brittany,Bretagne,,,,French,,,Festival,"['Fest-noz', 'Grand fest-noz annuel']"
contact@sonerien-du.bzh,Sonerien Du,,France,,Brest,Bretagne,,,,French,,,Association,"['Bagad', 'Bagad de Brest']"
info@monterblanc.fr,Mont Erblanc,,France,,Saint-Malo,Bretagne,,,,French,,,Festival,"['Festival folk', 'Festival folk Saint-Malo']"
contact@conservatoirebretagne.bzh,Réseau Conservatoires Bretagne,,France,,Rennes,Bretagne,,,,French,,,School Network,"['Conservatoires', 'Réseau conservatoires musique trad']"
direction@cnima.org,CNIMA - Centre National des Instruments de Musique Ancienne,,France,,Paris,Île-de-France,,,,French,,,School,"['Instruments anciens', 'Formation instruments anciens']"
info@musicehau.fr,Centre des Musiques Traditionnelles du Limousin,,France,,Limoges,Nouvelle-Aquitaine,,,,French,,,Cultural Center,"['Musique trad', 'Centre musiques limousines']"
contact@balfolkstrasbourg.fr,Bal Folk Strasbourg,,France,,Strasbourg,Grand Est,,,,French,,,Association,"['Bal folk', 'Association bal folk Strasbourg']"
info@folkloralsace.fr,Folklor Alsace,,France,,Colmar,Grand Est,,,,French,,,Association,"['Folklore alsacien', 'Musique et danse alsaciennes']"
contact@lafabriquedanses.fr,La Fabrique de Danses,,France,,Toulouse,Occitanie,,,,French,,,Association,"['Bal folk', 'Espace de danse et bal folk']"
lescopainsdabord@orange.fr,Les Copains d'Abord,,France,,Montpellier,Occitanie,,,,French,,,Association,"['Accordéon', 'Association accordéon Hérault']"
contact@musiquentete.fr,Musiq'en Tête,,France,,Marseille,Provence-Alpes-Côte d'Azur,,,,French,,,Association,"['Musique trad', 'Musiques traditionnelles méditerranéennes']"
balfolknice@gmail.com,Bal Folk Nice,,France,,Nice,Provence-Alpes-Côte d'Azur,,,,French,,,Association,"['Bal folk', ""Bals folk Côte d'Azur""]"
info@dansestraditionnelles.org,Association Danses Traditionnelles Provence,,France,,Aix-en-Provence,Provence-Alpes-Côte d'Azur,,,,French,,,Association,"['Danse trad', 'Danses provençales']"
contact@tradiprovence.fr,Tradi'Provence,,France,,Avignon,Provence-Alpes-Côte d'Azur,,,,French,,,Association,"['Musique provençale', 'Musiques et danses provençales']"
info@balfolklyon.fr,Bal Folk Lyon,,France,,Lyon,Auvergne-Rhône-Alpes,,,,French,,,Association,"['Bal folk', 'Organisation bals folk Lyon']"
lesamisduviolon@gmail.com,Les Amis du Violon Traditionnel,,France,,Clermont-Ferrand,Auvergne-Rhône-Alpes,,,,French,,,Association,"['Violon trad', 'Violon traditionnel auvergnat']"
contact@folkenbresse.fr,Folk en Bresse,,France,,Bourg-en-Bresse,Auvergne-Rhône-Alpes,,,,French,,,Association,"['Bal folk', 'Bal folk Ain']"
info@lesrondsdauvergne.fr,Les Ronds d'Auvergne,,France,,Aurillac,Auvergne-Rhône-Alpes,,,,French,,,Association,"['Danse auvergnate', 'Danses auvergnates traditionnelles']"
association@vielemusicale.fr,Vièle Musicale,,France,,Le Puy-en-Velay,Auvergne-Rhône-Alpes,,,,French,,,Association,"['Vièle', 'Vièle à roue Haute-Loire']"
contact@folkingrenoble.fr,Folk In Grenoble,,France,,Grenoble,Auvergne-Rhône-Alpes,,,,French,,,Association,"['Bal folk', 'Bal folk Isère']"
lesmenestrels@orange.fr,Les Ménestrels,,France,,Annecy,Auvergne-Rhône-Alpes,,,,French,,,Association,"['Musique médiévale', 'Musiques anciennes Savoie']"
info@folkdijon.fr,Folk Dijon,,France,,Dijon,Bourgogne-Franche-Comté,,,,French,,,Association,"['Bal folk', 'Bal folk Bourgogne']"
contact@epicurien-musique.fr,L'Épicurien Musiques du Monde,,France,,Dijon,Bourgogne-Franche-Comté,,,,French,,,Association,"['Musiques du monde', 'Musiques du monde et bal folk']"
lescompagnonsdelatrad@wanadoo.fr,Les Compagnons de la Trad,,France,,Besançon,Bourgogne-Franche-Comté,,,,French,,,Association,"['Musique trad', 'Musique traditionnelle Franche-Comté']"
contact@bourree-bourgogne.fr,La Bourrée Bourguignonne,,France,,Beaune,Bourgogne-Franche-Comté,,,,French,,,Association,"['Bourrée', 'Danse et musique bourguignonne']"
info@folkenmorvan.fr,Folk en Morvan,,France,,Château-Chinon,Bourgogne-Franche-Comté,,,,French,,,Association,"['Bal folk', 'Bal folk Nièvre']"
contact@balfolkreims.fr,Bal Folk Reims,,France,,Reims,Grand Est,,,,French,,,Association,"['Bal folk', 'Association bal folk Marne']"
info@folklorraine.fr,Folklor'Aine,,France,,Nancy,Grand Est,,,,French,,,Association,"['Bal folk', 'Bal folk Lorraine']"
lesamisdelavielle@gmail.com,Les Amis de la Vielle,,France,,Metz,Grand Est,,,,French,,,Association,"['Vielle à roue', 'Vielle à roue Moselle']"
contact@tradenmoselle.fr,Trad en Moselle,,France,,Thionville,Grand Est,,,,French,,,Association,"['Musique trad', 'Musiques traditionnelles Lorraine']"
info@folkamiens.fr,Folk'Amiens,,France,,Amiens,Hauts-de-France,,,,French,,,Association,"['Bal folk', 'Bal folk Somme']"
balfolklille@gmail.com,Bal Folk Lille,,France,,Lille,Hauts-de-France,,,,French,,,Association,"['Bal folk', 'Bals folk Nord']"
contact@folklille.org,Asso Folk Lille,,France,,Lille,Hauts-de-France,,,,French,,,Association,"['Musique folk', 'Musiques folk et trad Nord']"
lesmenestrelsdunord@orange.fr,Les Ménestrels du Nord,,France,,Valenciennes,Hauts-de-France,,,,French,,,Association,"['Musique médiévale', 'Musiques médiévales Nord']"
info@tradpicardie.fr,Trad'Picardie,,France,,Beauvais,Hauts-de-France,,,,French,,,Association,"['Musique picarde', 'Musiques traditionnelles Picardie']"
contact@folkencalais.fr,Folk en Calais,,France,,Calais,Hauts-de-France,,,,French,,,Association,"['Bal folk', 'Bal folk Pas-de-Calais']"
info@accordion-club-koeln.de,Accordion Club Köln,,Germany,,Köln,Nordrhein-Westfalen,,,accordion-club-koeln.de,German,,,Club,"['Accordion', 'Accordion club Cologne']"
kontakt@harmonika-muenchen.de,Harmonika Verein München,,Germany,,München,Bayern,,,harmonika-muenchen.de,German,,,Association,"['Harmonika', 'Munich harmonika association']"
info@akkordeon-frankfurt.de,Akkordeon Orchester Frankfurt,,Germany,,Frankfurt,Hessen,,,akkordeon-frankfurt.de,German,,,Orchestra,"['Accordion', 'Frankfurt accordion orchestra']"
kontakt@harmonika-stuttgart.de,Harmonika Club Stuttgart,,Germany,,Stuttgart,Baden-Württemberg,,,harmonika-stuttgart.de,German,,,Club,"['Harmonika', 'Stuttgart harmonika club']"
info@akkordeon-dresden.de,Akkordeon Verein Dresden,,Germany,,Dresden,Sachsen,,,akkordeon-dresden.de,German,,,Association,"['Accordion', 'Dresden accordion association']"
kontakt@steirische-berlin.de,Steirische Harmonika Berlin,,Germany,,Berlin,Berlin,,,steirische-berlin.de,German,,,Association,"['Steirische', 'Berlin steirische group']"
info@volksmusik-bayern.de,Volksmusik Bayern,,Germany,,München,Bayern,,,volksmusik-bayern.de,German,,,Association,"['Volksmusik', 'Bavarian folk music']"
kontakt@tanz-und-musik.de,Tanz und Volksmusik Verein,,Germany,,Freiburg,Baden-Württemberg,,,,German,,,Association,"['Folk dance', 'Dance and folk music']"
info@akkordeon-hannover.de,Akkordeon Club Hannover,,Germany,,Hannover,Niedersachsen,,,akkordeon-hannover.de,German,,,Club,"['Accordion', 'Hannover accordion club']"
kontakt@harmonika-leipzig.de,Harmonika Orchester Leipzig,,Germany,,Leipzig,Sachsen,,,harmonika-leipzig.de,German,,,Orchestra,"['Harmonika', 'Leipzig harmonika orchestra']"
info@balfolk-deutschland.de,Balfolk Deutschland,,Germany,,Berlin,Berlin,,,balfolk-deutschland.de,German,,,Network,"['Bal folk', 'German balfolk network']"
kontakt@folkmusik-hamburg.de,Folkmusik Hamburg,,Germany,,Hamburg,Hamburg,,,folkmusik-hamburg.de,German,,,Association,"['Folk music', 'Hamburg folk music']"
info@accordion-duesseldorf.de,Akkordeon Verein Düsseldorf,,Germany,,Düsseldorf,Nordrhein-Westfalen,,,accordion-duesseldorf.de,German,,,Association,"['Accordion', 'Düsseldorf accordion']"
kontakt@volksmusik-sachsen.de,Volksmusik Sachsen,,Germany,,Dresden,Sachsen,,,,German,,,Association,"['Volksmusik', 'Saxon folk music']"
info@folkclub-bremen.de,Folk Club Bremen,,Germany,,Bremen,Bremen,,,folkclub-bremen.de,German,,,Club,"['Folk', 'Bremen folk club']"
info@organetto-roma.it,Organetto Roma,,Italy,,Roma,Lazio,,,organetto-roma.it,Italian,,,Association,"['Organetto', 'Rome organetto association']"
contatto@fisarmonica-napoli.it,Associazione Fisarmonica Napoli,,Italy,,Napoli,Campania,,,fisarmonica-napoli.it,Italian,,,Association,"['Fisarmonica', 'Naples accordion association']"
info@organetto-toscana.it,Organetto Toscana,,Italy,,Firenze,Toscana,,,organetto-toscana.it,Italian,,,Association,"['Organetto', 'Tuscany organetto']"
contatto@musicapopolare-abruzzo.it,Musica Popolare Abruzzo,,Italy,,Pescara,Abruzzo,,,,Italian,,,Association,"['Folk music', 'Abruzzo folk music']"
info@organetto-marche.it,Organetto Marche,,Italy,,Ancona,Marche,,,,Italian,,,Association,"['Organetto', 'Marche organetto network']"
contatto@fisarmonica-milano.it,Associazione Fisarmonicisti Milano,,Italy,,Milano,Lombardia,,,fisarmonica-milano.it,Italian,,,Association,"['Fisarmonica', 'Milan accordion association']"
info@tarantella-puglia.it,Tarantella Puglia,,Italy,,Bari,Puglia,,,tarantella-puglia.it,Italian,,,Association,"['Tarantella', 'Apulian tarantella']"
contatto@organetto-calabria.it,Organetto Calabria,,Italy,,Reggio Calabria,Calabria,,,,Italian,,,Association,"['Organetto', 'Calabrian organetto']"
info@musicatradizionale-sicilia.it,Musica Tradizionale Sicilia,,Italy,,Palermo,Sicilia,,,,Italian,,,Association,"['Traditional music', 'Sicilian traditional music']"
contatto@fisarmonica-bologna.it,Fisarmonica Bologna,,Italy,,Bologna,Emilia-Romagna,,,fisarmonica-bologna.it,Italian,,,Association,"['Fisarmonica', 'Bologna accordion']"
info@cce-cork.ie,CCE Cork Branch,,Ireland,,Cork,Munster,,,comhaltas.ie,English,,,Branch,"['CCE', 'Comhaltas Cork branch']"
secretary@cce-galway.ie,CCE Galway Branch,,Ireland,,Galway,Connacht,,,comhaltas.ie,English,,,Branch,"['CCE', 'Comhaltas Galway branch']"
info@cce-limerick.ie,CCE Limerick Branch,,Ireland,,Limerick,Munster,,,comhaltas.ie,English,,,Branch,"['CCE', 'Comhaltas Limerick branch']"
secretary@cce-dublin.ie,CCE Dublin Branch,,Ireland,,Dublin,Leinster,,,comhaltas.ie,English,,,Branch,"['CCE', 'Comhaltas Dublin branch']"
info@cce-donegal.ie,CCE Donegal Branch,,Ireland,,Donegal,Ulster,,,comhaltas.ie,English,,,Branch,"['CCE', 'Comhaltas Donegal branch']"
info@melodeon.net,Melodeon.net Community,,UK,,London,England,,,melodeon.net,English,,,Network,"['Melodeon', 'UK melodeon community']"
secretary@scottishaccordion.org,Scottish Accordion Club,,UK,,Edinburgh,Scotland,,,scottishaccordion.org,English,,,Club,"['Accordion', 'Scottish accordion association']"
info@welshfolk.org,Welsh Folk Dance Society,,UK,,Cardiff,Wales,,,welshfolk.org,English,,,Society,"['Folk dance', 'Welsh folk dance']"
contact@folkclub-london.org,London Folk Club,,UK,,London,England,,,folkclub-london.org,English,,,Club,"['Folk', 'London folk sessions']"
info@oxfordfolk.org.uk,Oxford Folk Club,,UK,,Oxford,England,,,oxfordfolk.org.uk,English,,,Club,"['Folk', 'Oxford folk music']"
secretary@cambridgefolk.org,Cambridge Folk Festival Association,,UK,,Cambridge,England,,,cambridgefolk.org,English,,,Festival,"['Folk', 'Cambridge folk']"
info@bristolfolk.org.uk,Bristol Folk Society,,UK,,Bristol,England,,,bristolfolk.org.uk,English,,,Society,"['Folk', 'Bristol folk community']"
contact@manchesterfolk.org,Manchester Folk Club,,UK,,Manchester,England,,,,English,,,Club,"['Folk', 'Manchester folk sessions']"
info@liverpoolfolk.co.uk,Liverpool Folk Club,,UK,,Liverpool,England,,,,English,,,Club,"['Folk', 'Liverpool folk music']"
secretary@yorkshirefolk.org,Yorkshire Folk Arts,,UK,,Leeds,England,,,yorkshirefolk.org,English,,,Association,"['Folk arts', 'Yorkshire folk']"
info@newcastlefolk.org.uk,Newcastle Folk Club,,UK,,Newcastle,England,,,,English,,,Club,"['Folk', 'Newcastle folk sessions']"
contact@nottinghamfolk.org,Nottingham Folk Club,,UK,,Nottingham,England,,,,English,,,Club,"['Folk', 'Nottingham folk']"
info@birminghamfolk.org.uk,Birmingham Folk Club,,UK,,Birmingham,England,,,,English,,,Club,"['Folk', 'Birmingham folk music']"
secretary@sheffieldfolk.org,Sheffield Accordion Club,,UK,,Sheffield,England,,,,English,,,Club,"['Accordion', 'Sheffield accordion']"
info@balfolk-brussels.be,Balfolk Brussels,,Belgium,,Brussels,Brussels,,,balfolk-brussels.be,French/Dutch,,,Association,"['Bal folk', 'Brussels balfolk network']"
contact@volksdans-gent.be,Volksdans Gent,,Belgium,,Gent,Flanders,,,volksdans-gent.be,Dutch,,,Association,"['Folk dance', 'Ghent folk dance']"
info@balfolk-liege.be,Balfolk Liège,,Belgium,,Liège,Wallonia,,,balfolk-liege.be,French,,,Association,"['Bal folk', 'Liège balfolk']"
contact@folkbelgium.be,Folk Belgium Network,,Belgium,,Antwerpen,Flanders,,,folkbelgium.be,Dutch/French,,,Network,"['Folk', 'Belgian folk network']"
info@accordeon-antwerpen.be,Accordeon Club Antwerpen,,Belgium,,Antwerpen,Flanders,,,,Dutch,,,Club,"['Accordion', 'Antwerp accordion club']"
contact@danstraditioneel.be,Dans Traditioneel België,,Belgium,,Leuven,Flanders,,,,Dutch,,,Association,"['Traditional dance', 'Traditional dance Belgium']"
info@balfolk-amsterdam.nl,Balfolk Amsterdam,,Netherlands,,Amsterdam,North Holland,,,balfolk-amsterdam.nl,Dutch,,,Association,"['Bal folk', 'Amsterdam balfolk']"
contact@volksmuziek-utrecht.nl,Volksmuziek Utrecht,,Netherlands,,Utrecht,Utrecht,,,volksmuziek-utrecht.nl,Dutch,,,Association,"['Folk music', 'Utrecht folk music']"
info@folkclub-rotterdam.nl,Folk Club Rotterdam,,Netherlands,,Rotterdam,South Holland,,,,Dutch,,,Club,"['Folk', 'Rotterdam folk club']"
contact@accordeonvereniging.nl,Nederlandse Accordeon Vereniging,,Netherlands,,Den Haag,South Holland,,,accordeonvereniging.nl,Dutch,,,Association,"['Accordion', 'Dutch accordion association']"
info@balfolk-nijmegen.nl,Balfolk Nijmegen,,Netherlands,,Nijmegen,Gelderland,,,,Dutch,,,Association,"['Bal folk', 'Nijmegen balfolk']"
contact@volksdans-nederland.nl,Volksdans Nederland,,Netherlands,,Amersfoort,Utrecht,,,volksdans-nederland.nl,Dutch,,,Federation,"['Folk dance', 'Dutch folk dance federation']"
info@folkgroningen.nl,Folk Groningen,,Netherlands,,Groningen,Groningen,,,,Dutch,,,Association,"['Folk', 'Groningen folk music']"
contact@accordeon-eindhoven.nl,Accordeon Club Eindhoven,,Netherlands,,Eindhoven,North Brabant,,,,Dutch,,,Club,"['Accordion', 'Eindhoven accordion']"
info@trikitixa-donostia.eus,Trikitixa Elkartea Donostia,,Spain,,Donostia-San Sebastián,Basque Country,,,trikitixa.eus,Basque,,,Association,"['Trikitixa', 'San Sebastián trikitixa']"
contacto@acordeon-bilbao.eus,Asociación Acordeón Bilbao,,Spain,,Bilbao,Basque Country,,,,Basque,,,Association,"['Accordion', 'Bilbao accordion association']"
info@acordeon-vitoria.eus,Acordeón Gasteiz,,Spain,,Vitoria-Gasteiz,Basque Country,,,,Basque,,,Association,"['Accordion', 'Vitoria accordion']"
contacto@musicatradicional-galicia.es,Música Tradicional Galicia,,Spain,,Santiago de Compostela,Galicia,,,musicagalicia.es,Galician,,,Association,"['Traditional music', 'Galician traditional music']"
info@acordeon-asturias.es,Acordeón Asturias,,Spain,,Oviedo,Asturias,,,,Spanish,,,Association,"['Accordion', 'Asturian accordion']"
contacto@folkcat.cat,Folk Catalunya,,Spain,,Barcelona,Catalunya,,,folkcat.cat,Catalan,,,Association,"['Folk', 'Catalan folk music']"
info@musicatrad-barcelona.cat,Música Tradicional Barcelona,,Spain,,Barcelona,Catalunya,,,,Catalan,,,Association,"['Traditional music', 'Barcelona traditional music']"
contacto@acordeon-madrid.es,Asociación Acordeón Madrid,,Spain,,Madrid,Madrid,,,,Spanish,,,Association,"['Accordion', 'Madrid accordion association']"
info@folkvalencia.es,Folk Valencia,,Spain,,Valencia,Valencia,,,,Spanish,,,Association,"['Folk', 'Valencia folk music']"
contacto@musictrad-aragon.es,Música Tradicional Aragón,,Spain,,Zaragoza,Aragón,,,,Spanish,,,Association,"['Traditional music', 'Aragonese traditional music']"
info@steirische-graz.at,Steirische Harmonika Graz,,Austria,,Graz,Steiermark,,,steirische-graz.at,German,,,Association,"['Steirische', 'Graz steirische association']"
kontakt@harmonika-salzburg.at,Harmonika Verein Salzburg,,Austria,,Salzburg,Salzburg,,,harmonika-salzburg.at,German,,,Association,"['Harmonika', 'Salzburg harmonika']"
info@volksmusik-tirol.at,Volksmusik Tirol,,Austria,,Innsbruck,Tirol,,,volksmusik-tirol.at,German,,,Association,"['Volksmusik', 'Tyrolean folk music']"
kontakt@steirische-wien.at,Steirische Wien,,Austria,,Wien,Wien,,,steirische-wien.at,German,,,Association,"['Steirische', 'Vienna steirische group']"
info@harmonika-kaernten.at,Harmonika Kärnten,,Austria,,Klagenfurt,Kärnten,,,,German,,,Association,"['Harmonika', 'Carinthian harmonika']"
kontakt@volksmusik-oberoesterreich.at,Volksmusik Oberösterreich,,Austria,,Linz,Oberösterreich,,,,German,,,Association,"['Volksmusik', 'Upper Austrian folk music']"
info@schwyzerorgeli-luzern.ch,Schwyzerörgeli Verein Luzern,,Switzerland,,Luzern,Luzern,,,schwyzerorgeli-luzern.ch,German,,,Association,"['Schwyzerörgeli', 'Lucerne schwyzerörgeli']"
kontakt@accordeon-basel.ch,Accordeon Club Basel,,Switzerland,,Basel,Basel-Stadt,,,accordeon-basel.ch,German,,,Club,"['Accordion', 'Basel accordion club']"
info@accordeon-bern.ch,Accordeon Verein Bern,,Switzerland,,Bern,Bern,,,accordeon-bern.ch,German,,,Association,"['Accordion', 'Bern accordion']"
contact@musique-folk-lausanne.ch,Musique Folk Lausanne,,Switzerland,,Lausanne,Vaud,,,folk-lausanne.ch,French,,,Association,"['Folk music', 'Lausanne folk music']"
info@accordeon-geneve.ch,Association Accordéon Genève,,Switzerland,,Genève,Genève,,,accordeon-geneve.ch,French,,,Association,"['Accordion', 'Geneva accordion']"
kontakt@schwyzerorgeli-zurich.ch,Schwyzerörgeli Zürich,,Switzerland,,Zürich,Zürich,,,schwyzerorgeli-zurich.ch,German,,,Association,"['Schwyzerörgeli', 'Zurich schwyzerörgeli']"
info@volksmusik-appenzell.ch,Volksmusik Appenzell,,Switzerland,,Appenzell,Appenzell Innerrhoden,,,,German,,,Association,"['Volksmusik', 'Appenzell folk music']"
contact@musiquepopulaire-fribourg.ch,Musique Populaire Fribourg,,Switzerland,,Fribourg,Fribourg,,,,French,,,Association,"['Folk music', 'Fribourg folk music']"
info@accordeon-ticino.ch,Fisarmonica Ticino,,Switzerland,,Lugano,Ticino,,,,Italian,,,Association,"['Fisarmonica', 'Ticino accordion']"
kontakt@volksmusik-stgallen.ch,Volksmusik St. Gallen,,Switzerland,,St. Gallen,St. Gallen,,,,German,,,Association,"['Volksmusik', 'St. Gallen folk music']"
info@concertina-portugal.pt,Concertina Portugal,,Portugal,,Lisboa,Lisboa,,,concertina-portugal.pt,Portuguese,,,Association,"['Concertina', 'Portuguese concertina association']"
contacto@musicatradicional-minho.pt,Música Tradicional Minho,,Portugal,,Braga,Braga,,,,Portuguese,,,Association,"['Traditional music', 'Minho traditional music']"
info@concertina-coimbra.pt,Concertina Coimbra,,Portugal,,Coimbra,Coimbra,,,,Portuguese,,,Association,"['Concertina', 'Coimbra concertina']"
contacto@folclore-alentejo.pt,Folclore Alentejo,,Portugal,,Évora,Évora,,,,Portuguese,,,Association,"['Folklore', 'Alentejo folklore']"
info@musicapopular-porto.pt,Música Popular Porto,,Portugal,,Porto,Porto,,,,Portuguese,,,Association,"['Popular music', 'Porto traditional music']"
contacto@acordeon-lisboa.pt,Acordeão Lisboa,,Portugal,,Lisboa,Lisboa,,,,Portuguese,,,Association,"['Accordion', 'Lisbon accordion association']"
info@akkordeon-nrw.de,,Harmonikaverband Nordrhein-Westfalen,,Düsseldorf,,NRW,DE,,https://www.akkordeon-nrw.de,Regional Federation,de,Akkordeon,Landesverband NRW,
info@hohner.de,,Hohner Musikinstrumente,,Trossingen,,Baden-Württemberg,DE,,https://www.hohner.de,Manufacturer,de,Akkordeon/Harmonika,Hersteller,
kontakt@steirische-harmonika-schule.de,,Steirische Harmonika Schule,,München,,Bayern,DE,,https://www.steirische-harmonika-schule.de,School,de,Steirische Harmonika,Musikschule Bayern,
info@musikschule-freiburg.de,,Musikschule Freiburg,,Freiburg,,Baden-Württemberg,DE,0761 888 515-0,https://www.musikschule-freiburg.de,Music School,de,Akkordeon,Städtische Musikschule,
akkordeon@musikverein-bayern.de,,Bayerischer Akkordeon Verband,,München,,Bayern,DE,,,Regional Federation,de,Akkordeon,Verband Bayern,
info@tff-rudolstadt.de,,TFF Rudolstadt Festival,,Rudolstadt,,Thüringen,DE,,https://www.tff-rudolstadt.de,Festival,de,Folk/Weltmusik,Größtes Folkfestival Deutschland,
kontakt@folkclub-muenchen.de,,Folkclub München,,München,,Bayern,DE,,,Folk Club,de,Folk/Traditional,Veranstalter,
info@accordion-center.de,,Accordion Center,,Nürnberg,,Bayern,DE,0911 234567,https://www.accordion-center.de,Music Store,de,Akkordeon,Fachgeschäft,
akkordeon.atelier@gmail.com,,Akkordeon Atelier Berlin,,Berlin,,Berlin,DE,030 12345678,,Luthier,de,Akkordeon Reparatur,Werkstatt,
kontakt@volksmusikerbund-nrw.de,,Volksmusikerbund NRW,,Münster,,NRW,DE,,https://www.volksmusikerbund-nrw.de,Regional Association,de,Volksmusik,Verein,
info@steirische-harmonika-welt.de,,Steirische Harmonika Welt,,Stuttgart,,Baden-Württemberg,DE,,,Music Store,de,Steirische Harmonika,Onlineshop,
akkordeonunterricht@web.de,,Akkordeon Unterricht Hamburg,,Hamburg,,Hamburg,DE,,,Teacher,de,Akkordeon,Privatlehrer,
info@musikhaus-thomann.de,,Musikhaus Thomann,,Treppendorf,,Bayern,DE,09546 9223-0,https://www.thomann.de,Music Store,de,Alle Instrumente,Europas größtes Musikhaus,
kontakt@akkordeonorchester-stuttgart.de,,Akkordeonorchester Stuttgart,,Stuttgart,,Baden-Württemberg,DE,,,Orchestra,de,Akkordeon,Orchester,
info@harmonika-akademie.de,,Harmonika Akademie,,Berchtesgaden,,Bayern,DE,,,School,de,Steirische Harmonika,Bildungszentrum,
volksmusik@bayern.de,,Bayerischer Landesverein für Heimatpflege,,München,,Bayern,DE,089 286629-0,https://www.heimat-bayern.de,Cultural Association,de,Volksmusik/Trachten,Kulturverein,
kontakt@folk-im-park.de,,Folk im Park,,Darmstadt,,Hessen,DE,,,Festival,de,Folk,Folkfestival,
info@akkordeonverlag.de,,Akkordeon Verlag,,Freiburg,,Baden-Württemberg,DE,,,Publisher,de,Akkordeon Noten,Musikverlag,
harmonika-lehrer@gmail.com,,Harmonika Lehrer Deutschland,,Various,,Bundesweit,DE,,,Teacher Network,de,Steirische Harmonika,Lehrernetzwerk,
info@accordion-festival.de,,Accordion Festival Germany,,Various,,Bundesweit,DE,,,Festival Network,de,Akkordeon,Festivalnetzwerk,
kontakt@musikschule-berlin.de,,Musikschule Berlin,,Berlin,,Berlin,DE,030 9018-3,https://www.berlin.de/musikschule,Music School,de,Akkordeon,Bezirksmusikschule,
info@akkordeon-service.de,,Akkordeon Service,,Frankfurt,,Hessen,DE,069 123456,,Luthier,de,Akkordeon,Reparaturservice,
volksmusik@sachsen.de,,Sächsischer Landesverband für Heimatschutz,,Dresden,,Sachsen,DE,,,Cultural Association,de,Volksmusik,Kulturverein,
info@balfolk-berlin.de,,Balfolk Berlin,,Berlin,,Berlin,DE,,,Folk Club,de,Balfolk,Tanzveranstalter,
contact@eja-europe.net,,European Juggling Association (Folk section),,Berlin,,Berlin,DE,,,Network,en,Folk Music,Europäisches Netzwerk,
info@musikschule-muenchen.de,,Musikschule München,,München,,Bayern,DE,089 233-0,https://www.musikschule-muenchen.de,Music School,de,Akkordeon,Städtische Musikschule,
akkordeon@folkclub-koeln.de,,Folkclub Köln,,Köln,,NRW,DE,,,Folk Club,de,Folk/Trad,Veranstalter,
info@harmonika-versand.de,,Harmonika Versand,,München,,Bayern,DE,,,Music Store,de,Steirische Harmonika,Onlineshop,
kontakt@weltmusik-festival.de,,Weltmusik Festival,,Freiburg,,Baden-Württemberg,DE,,,Festival,de,World Music,Festival,
info@itm-berlin.de,,ITM Berlin - Institut für Traditionelle Musik,,Berlin,,Berlin,IT,,,Research Institute,de,Traditionelle Musik,Forschungsinstitut,
info@concertina.org,,Concertina Club Deutschland,,Various,,Bundesweit,DE,,,Association,de,Concertina,Verein,
contact@folkfestival.de,,Folk Festival Deutschland,,Various,,Bundesweit,DE,,,Festival Network,de,Folk,Netzwerk,
akkordeon-kurse@gmx.de,,Akkordeon Kurse & Workshops,,Various,,Bundesweit,DE,,,Workshop Organizer,de,Akkordeon,Kursanbieter,
info@harmonikafreunde.de,,Harmonikafreunde Deutschland,,Various,,Bundesweit,DE,,,Association,de,Harmonika,Verein,
kontakt@musikschule-frankfurt.de,,Musikschule Frankfurt,,Frankfurt,,Hessen,DE,069 212-37521,,Music School,de,Akkordeon,Städtische Musikschule,
info@accordion-repair.de,,Accordion Repair Service,,Düsseldorf,,NRW,DE,,,Luthier,de,Akkordeon,Reparatur,
volksmusik@baden-wuerttemberg.de,,Landesverband Volksmusik Baden-Württemberg,,Stuttgart,,Baden-Württemberg,DE,,,Regional Association,de,Volksmusik,Landesverband,
info@harmonika-workshop.de,,Harmonika Workshop,,Augsburg,,Bayern,DE,,,Workshop Organizer,de,Steirische Harmonika,Workshops,
kontakt@balfolk-deutschland.de,,Balfolk Deutschland,,Various,,Bundesweit,DE,,,Network,de,Balfolk,Netzwerk,
info@fisarmonicisti.it,,Associazione Italiana Fisarmonicisti,,Roma,,Nazionale,IT,,http://www.fisarmonicisti.it,National Federation,it,Fisarmonica,Federazione nazionale,
info@organetto.org,,Organetto Italiano,,Various,,Nazionale,IT,,https://www.organetto.org,Association,it,Organetto,Associazione,
contatto@castagnari.it,,Castagnari Organetti,,Recanati,,Marche,IT,071 7570139,https://www.castagnari.it,Manufacturer,it,Organetto,Costruttore,
info@bugari.it,,Bugari Armando,,Castelfidardo,,Marche,IT,,https://www.bugari.it,Manufacturer,it,Fisarmonica,Fabbrica,
info@scandalli.it,,Scandalli Accordions,,Camerano,,Marche,IT,071 7300161,https://www.scandalli.it,Manufacturer,it,Fisarmonica,Produttore,
segreteria@conservatoriodiperugia.it,,Conservatorio di Perugia,,Perugia,,Umbria,IT,075 5732111,,Conservatory,it,Fisarmonica,Conservatorio,
info@pigini.com,,Pigini Accordions,,Castelfidardo,,Marche,IT,071 7820067,https://www.pigini.com,Manufacturer,it,Fisarmonica,Costruttore,
info@musicapopoalre.it,,Musica Popolare Italiana,,Roma,,Nazionale,IT,,,Association,it,Musica tradizionale,Associazione,
scuolaorganetto@gmail.com,,Scuola di Organetto,,Roma,,Lazio,IT,,,School,it,Organetto,Scuola musica,
info@fisarmonicaonline.it,,Fisarmonica Online,,Milano,,Nazionale,IT,,,Online Store,it,Fisarmonica,Negozio online,
contatto@folkitalia.it,,Folk Italia,,Various,,Nazionale,IT,,,Network,it,Musica folk,Rete,
organetto.abruzzo@gmail.com,,Organetto Abruzzo,,L'Aquila,,Abruzzo,IT,,,Regional Association,it,Organetto,Associazione regionale,
info@musicatradizionale.com,,Centro Musica Tradizionale,,Napoli,,Campania,IT,,,Cultural Center,it,Musica tradizionale,Centro culturale,
info@ballotrad.it,,Ballo Tradizionale Italia,,Various,,Nazionale,IT,,,Dance Association,it,Danza tradizionale,Associazione danza,
fisarmonica@musicatorino.it,,Scuola di Fisarmonica Torino,,Torino,,Piemonte,IT,,,School,it,Fisarmonica,Scuola,
info@tarantella.org,,Tarantella Association,,Napoli,,Campania,IT,,,Cultural Association,it,Tarantella/Organetto,Associazione,
contatto@salterello.it,,Salterello - Musica Tradizionale,,Roma,,Lazio,IT,,,Association,it,Musica popolare,Gruppo,
info@weltmeister-italia.it,,Weltmeister Italia,,Milano,,Lombardia,IT,,,Distributor,it,Fisarmonica,Distributore,
luthier@organetto-repair.it,,Organetto Repair Service,,Ancona,,Marche,IT,,,Luthier,it,Organetto,Riparazione,
info@festivalorganetto.it,,Festival dell'Organetto,,Scanno,,Abruzzo,IT,,,Festival,it,Organetto,Festival annuale,
info@comhaltas.ie,,Comhaltas Ceoltóirí Éireann,,Dublin,,National,IE,,https://comhaltas.ie,National Federation,en,Irish Traditional Music,National organization,
info@itma.ie,,Irish Traditional Music Archive,,Dublin,,National,IE,01 295 1809,https://www.itma.ie,Archive,en,Traditional Irish Music,Archive & resource center,
buttonaccordion@eircom.net,,Button Accordion Ireland,,Various,,National,IE,,,Association,en,Button Accordion,Irish button accordion,
info@ccedublin.ie,,CCE Dublin,,Dublin,,Leinster,IE,,https://www.ccedublin.ie,Regional Branch,en,Traditional Music,Comhaltas Dublin,
corkcomhaltas@gmail.com,,CCE Cork,,Cork,,Munster,IE,,,Regional Branch,en,Traditional Music,Comhaltas Cork,
info@musicnetwork.ie,,Music Network,,Dublin,,National,IE,01 605 1300,https://www.musicnetwork.ie,Network,en,Traditional Music,Music development,
info@artscouncil.ie,,Arts Council Ireland,,Dublin,,National,IE,01 618 0200,https://www.artscouncil.ie,Government Agency,en,All Arts,Arts funding,
fleadh@fleadhcheoil.ie,,Fleadh Cheoil,,Various,,National,IE,,,Festival,en,Traditional Music,Annual festival,
info@traditionaltune.com,,Traditional Tune Archive,,Dublin,,National,IE,,,Online Resource,en,Traditional Music,Tune database,
buttonbox@ireland.com,,Button Box School,,Galway,,National,IE,,,School,en,Button Accordion,Music school,
concertina@eircom.net,,Irish Concertina Association,,Clare,,National,IE,,,Association,en,Concertina,Concertina players,
info@mcneela.eu,,McNeela Instruments,,Sligo,,Connacht,IE,071 916 5847,https://www.mcneela.eu,Music Store,en,Traditional Instruments,Instrument shop,
info@gael-linn.ie,,Gael Linn,,Dublin,,National,IE,01 675 1200,https://www.gael-linn.ie,Cultural Organization,ga/en,Irish Language & Music,Cultural promotion,
trad@rte.ie,,RTÉ Traditional Music,,Dublin,,National,IE,,,Media,en,Traditional Music,Broadcasting,
info@oireachtas.ie,,Oireachtas na Gaeilge,,Dublin,,National,IE,,,Festival,ga/en,Irish Music & Culture,Annual festival,
ccewest@gmail.com,,CCE Western Region,,Galway,,Connacht,IE,,,Regional Branch,en,Traditional Music,Comhaltas West,
melodeon@ireland.ie,,Irish Melodeon Players,,Various,,National,IE,,,Association,en,Melodeon,Player network,
sessionireland@gmail.com,,Session Ireland,,Various,,National,IE,,,Network,en,Traditional Sessions,Session network,
info@templetrad.ie,,Temple Bar Trad,,Dublin,,Leinster,IE,,,Venue/School,en,Traditional Music,Music venue & school,
irishmusic@ucc.ie,,UCC Irish Music Department,,Cork,,Munster,IE,021 490 3000,,University,en,Traditional Music,Academic program,
info@folkarts-england.org,,Folk Arts England,,Matlock,,National,GB,01629 827411,,Network,en,Folk Arts,Development agency,
melodeon@folkclub.org.uk,,Melodeon.net,,Various,,National,GB,,https://www.melodeon.net,Online Resource,en,Melodeon,Player resource,
info@cecilsharp.org,,Cecil Sharp House,,London,,England,GB,020 7485 2206,,Cultural Center,en,Folk Music,EFDSS headquarters,
scottishmusic@scotland.com,,Traditional Music Scotland,,Edinburgh,,Scotland,GB,,,Association,en,Scottish Traditional,Scottish trad music,
info@folkwales.org.uk,,Folk Wales,,Cardiff,,Wales,GB,,,Network,en,Welsh Folk,Welsh folk music,
morris@morrisfed.org.uk,,Morris Federation,,Various,,England,GB,,,Dance Federation,en,Morris Dancing,Morris dance network,
ceilidh@scotland.net,,Scottish Ceilidh Association,,Various,,Scotland,GB,,,Association,en,Ceilidh,Ceilidh bands & callers,
info@thefullenglisg.co.uk,,The Full English,,Various,,England,GB,,https://www.thefulleng,,,,,
lish.co.uk,,en,,Folk music archive,,English Folk,Digital Archive,,,,,,,
melodeon.lessons@gmail.com,,Melodeon Lessons UK,,Various,,National,GB,,,Teacher Network,en,Melodeon,Teachers directory,
info@folkeast.co.uk,,FolkEast Festival,,Suffolk,,England,GB,,,Festival,en,Folk Music,Annual festival,
cambridgefolk@festival.org.uk,,Cambridge Folk Festival,,Cambridge,,England,GB,01223 457245,,Festival,en,Folk Music,Major folk festival,
info@sidmouth-folkweek.co.uk,,Sidmouth Folk Festival,,Devon,,England,GB,,,Festival,en,Folk Music & Dance,Folk week,
concertina@ics.org.uk,,International Concertina Association,,Various,,National,GB,,,Association,en,Concertina,ICA UK branch,
folkclub@london.co.uk,,London Folk Club,,London,,England,GB,,,Folk Club,en,Folk Music,Weekly sessions,
info@accordionshop.co.uk,,Accordion Shop UK,,Birmingham,,England,GB,0121 773 0896,,Music Store,en,Accordion,Specialist shop,
info@accordionrepairs.co.uk,,Accordion Repairs UK,,Manchester,,England,GB,,,Luthier,en,Accordion,Repair service,
trad@irishinlondon.com,,Irish Music in London,,London,,England,GB,,,Network,en,Irish Traditional,Irish music scene London,
info@balfolk.be,,Balfolk Belgium,,Brussels,,National,BE,,,Network,fr/nl,Bal Folk,Réseau bal folk,
contact@muziekcentrum.be,,Muziekcentrum Vlaanderen,,Brussels,,Vlaanderen,BE,02 502 89 10,https://www.muziekcentrum.be,Music Center,nl,Folk Music,Centre musical,
info@folkinbelgium.be,,Folk in Belgium,,Various,,National,BE,,,Network,fr/nl/en,Folk Music,Folk network,
accordeon@volksmuziek.be,,Volksmuziek Vereniging,,Antwerpen,,Vlaanderen,BE,,,Association,nl,Volksmuziek,Association,
info@traditionalmusic.be,,Traditional Music Belgium,,Liège,,Wallonie,BE,,,Association,fr,Musique traditionnelle,Association,
balfolk.brussels@gmail.com,,Balfolk Brussels,,Brussels,,Brussels,BE,,,Association,fr/nl,Bal Folk,Organisateur bal folk,
info@muziekschoolantwerpen.be,,Muziekschool Antwerpen,,Antwerpen,,Vlaanderen,BE,,,Music School,nl,Accordeon,École de musique,
contact@folknamiddag.be,,Folk Namiddag,,Gent,,Vlaanderen,BE,,,Event Organizer,nl,Folk,Organisateur,
accordeon.liege@skynet.be,,Accordéon Liège,,Liège,,Wallonie,BE,,,School,fr,Accordéon,École,
info@celticcorners.be,,Celtic Corners,,Brussels,,National,BE,,,Festival,en,Celtic/Folk,Festival,
tradmusic@belgium.be,,Trad Music Belgium,,Various,,National,BE,,,Network,fr/nl,Traditional Music,Réseau,
info@muziekinstrumenten.be,,Muziekinstrumenten Shop,,Brussels,,Vlaanderen,BE,,,Music Store,nl,Accordeon,Magasin,
balfolk.gent@gmail.com,,Balfolk Gent,,Gent,,Vlaanderen,BE,,,Association,nl,Bal Folk,Association,
accordeon@conservatoire-bruxelles.be,,Conservatoire Royal de Bruxelles,,Brussels,,Brussels,BE,02 511 04 27,,Conservatory,fr,Accordéon,Conservatoire,
info@folkfestival.be,,Folk Festival Belgium,,Various,,National,BE,,,Festival,fr/nl/en,Folk,Festival,
info@eidg-jodlerverband.ch,,Eidgenössischer Jodlerverband,,Baar,,National,CH,041 767 17 80,https://www.jodlerverband.ch,National Federation,de,Jodel/Schwyzerörgeli,Fédération nationale,
info@schwyzerorgeli.ch,,Schwyzerörgeli Verband,,Zürich,,National,CH,,,Association,de,Schwyzerörgeli,Association,
contact@musiquetrad.ch,,Musique Traditionnelle Suisse,,Genève,,Romandie,CH,,,Association,fr,Musique traditionnelle,Association,
info@accordeon-suisse.ch,,Accordéon Suisse,,Bern,,National,CH,,,Association,de/fr,Accordéon,Association,
schwyzerorgeli@musikschule.ch,,Musikschule Schwyzerörgeli,,Schwyz,,Zentralschweiz,CH,,,Music School,de,Schwyzerörgeli,École,
info@volksmusik.ch,,Volksmusik Schweiz,,Luzern,,National,CH,,,Association,de,Volksmusik,Association,
contact@balfolk.ch,,Balfolk Schweiz,,Various,,National,CH,,,Network,de/fr,Bal Folk,Réseau,
info@alpenmusik.ch,,Alpenmusik Verband,,Bern,,National,CH,,,Association,de,Alpenmusik,Verband,
schwyzerorgeli.lehrer@gmail.com,,Schwyzerörgeli Lehrer,,Luzern,,Zentralschweiz,CH,,,Teacher,de,Schwyzerörgeli,Professeur,
info@musikhaus-fischer.ch,,Musikhaus Fischer,,Zürich,,Zürich,CH,044 251 50 80,,Music Store,de,Schwyzerörgeli,Magasin,
accordeon@conservatoire-geneve.ch,,Conservatoire de Genève,,Genève,,Romandie,CH,022 319 60 60,,Conservatory,fr,Accordéon,Conservatoire,
info@alpenfestival.ch,,Alpenfestival,,Interlaken,,Bern,CH,,,Festival,de,Alpenmusik,Festival,
volksmusik@bern.ch,,Volksmusik Bern,,Bern,,Bern,CH,,,Association,de,Volksmusik,Association locale,
info@harmonika-shop.ch,,Harmonika Shop,,Zürich,,Zürich,CH,,,Music Store,de,Harmonika,Magasin en ligne,
schwyzerorgeli@kurse.ch,,Schwyzerörgeli Kurse,,Schwyz,,Zentralschweiz,CH,,,Workshop Organizer,de,Schwyzerörgeli,Cours,
info@trikitixa.eus,,Trikitixa Elkartea,,Donostia-San Sebastián,,País Vasco,ES,,,Association,eu/es,Trikitixa,Asociación,
trikitixa@euskalherria.eus,,Trikitixa Euskal Herria,,Bilbao,,País Vasco,ES,,,Network,eu,Trikitixa,Red,
info@musicatradicional.es,,Música Tradicional España,,Madrid,,Nacional,ES,,,Network,es,Música tradicional,Red nacional,
acordeon@galicia.es,,Acordeón Galicia,,Santiago,,Galicia,ES,,,Association,es/gl,Acordeón,Asociación,
info@folkcatalunya.cat,,Folk Catalunya,,Barcelona,,Catalunya,ES,,,Association,ca/es,Música folk,Associació,
escuela.trikitixa@gmail.com,,Escuela de Trikitixa,,Vitoria,,País Vasco,ES,,,School,es/eu,Trikitixa,Escuela,
info@musicatradastur.es,,Música Tradicional Asturiana,,Oviedo,,Asturias,ES,,,Association,es,Música tradicional,Asociación,
folk.madrid@gmail.com,,Folk Madrid,,Madrid,,Madrid,ES,,,Association,es,Folk,Asociación,
info@festivaltrad.es,,Festival Música Tradicional,,Various,,Nacional,ES,,,Festival,es,Música tradicional,Festival,
trikitixa.donosti@gmail.com,,Trikitixa Donosti,,Donostia,,País Vasco,ES,,,School,eu/es,Trikitixa,Escuela,
info@acordeones.es,,Acordeones España,,Madrid,,Nacional,ES,,,Music Store,es,Acordeón,Tienda,
contact@danzatrad.es,,Danza Tradicional España,,Various,,Nacional,ES,,,Dance Association,es,Danza,Asociación danza,
acordeon@asturias.es,,Acordeón Asturiano,,Gijón,,Asturias,ES,,,Association,es,Acordeón,Asociación,
info@musictrad.cat,,Música Tradicional Catalana,,Barcelona,,Catalunya,ES,,,Cultural Center,ca,Música tradicional,Centre cultural,
trikitixa@irun.eus,,Trikitixa Irun,,Irun,,País Vasco,ES,,,Association,eu,Trikitixa,Asociación local,
info@volksmusikbund.at,,Österreichischer Volksmusikbund,,Wien,,National,AT,,,National Federation,de,Volksmusik,Bundesverband,
steirische@harmonika.at,,Steirische Harmonika Austria,,Graz,,National,AT,,,Association,de,Steirische Harmonika,Verein,
info@volksmusik-steiermark.at,,Volksmusik Steiermark,,Graz,,Steiermark,AT,,,Regional Association,de,Volksmusik,Landesverband,
kontakt@alpenlaendische-volksmusik.at,,Alpenländische Volksmusik,,Innsbruck,,Tirol,AT,,,Association,de,Volksmusik,Verein,
info@musikschule-wien.at,,Musikschule Wien,,Wien,,Wien,AT,,,Music School,de,Steirische Harmonika,Musikschule,
steirische.lehrer@aon.at,,Steirische Harmonika Lehrer,,Graz,,Steiermark,AT,,,Teacher,de,Steirische Harmonika,Lehrer,
info@volkstanz.at,,Volkstanz Österreich,,Salzburg,,National,AT,,,Dance Association,de,Volkstanz,Tanzverein,
harmonika@salzburg.at,,Harmonika Verband Salzburg,,Salzburg,,Salzburg,AT,,,Regional Association,de,Harmonika,Verband,
info@musikhaus-doblinger.at,,Musikhaus Doblinger,,Wien,,Wien,AT,01 515 03,,Music Store,de,Steirische Harmonika,Musikgeschäft,
kontakt@volksmusikfestival.at,,Volksmusik Festival,,Murau,,Steiermark,AT,,,Festival,de,Volksmusik,Festival,
info@harmonikaschule.at,,Harmonika Schule Austria,,Linz,,Oberösterreich,AT,,,School,de,Steirische Harmonika,Schule,
volksmusik@tirol.at,,Volksmusik Tirol,,Innsbruck,,Tirol,AT,,,Regional Association,de,Volksmusik,Verein,
info@steirische-werkstatt.at,,Steirische Werkstatt,,Graz,,Steiermark,AT,,,Luthier,de,Steirische Harmonika,Werkstatt,
kontakt@alpenmusik.at,,Alpenmusik Verband,,Klagenfurt,,National,AT,,,Association,de,Alpenmusik,Verband,
harmonika@kaernten.at,,Harmonika Kärnten,,Klagenfurt,,Kärnten,AT,,,Regional Association,de,Harmonika,Verein,
info@balfolk.nl,,Balfolk Nederland,,Amsterdam,,National,NL,,,Network,nl,Balfolk,Netwerk,
contact@volksmuziek.nl,,Volksmuziek Nederland,,Utrecht,,National,NL,,,Association,nl,Volksmuziek,Vereniging,
accordeon@muziekschool.nl,,Muziekschool Accordeon,,Amsterdam,,Noord-Holland,NL,,,Music School,nl,Accordeon,Muziekschool,
info@folkfestival.nl,,Folk Festival Nederland,,Various,,National,NL,,,Festival,nl,Folk,Festival,
trekharmonica@holland.nl,,Trekharmonica Nederland,,Various,,National,NL,,,Association,nl,Trekharmonica,Vereniging,
info@muziekhuis.nl,,Muziekhuis Nederland,,Rotterdam,,Zuid-Holland,NL,,,Music Store,nl,Accordeon,Muziekwinkel,
balfolk.amsterdam@gmail.com,,Balfolk Amsterdam,,Amsterdam,,Noord-Holland,NL,,,Association,nl,Balfolk,Vereniging,
contact@traditionelemuziek.nl,,Traditionele Muziek,,Den Haag,,National,NL,,,Association,nl,Traditionele muziek,Vereniging,
accordeon.reparatie@gmail.com,,Accordeon Reparatie,,Utrecht,,Utrecht,NL,,,Luthier,nl,Accordeon,Reparatieservice,
info@folkclub-utrecht.nl,,Folkclub Utrecht,,Utrecht,,Utrecht,NL,,,Folk Club,nl,Folk,Club,
volksmuziek@groningen.nl,,Volksmuziek Groningen,,Groningen,,Groningen,NL,,,Regional Association,nl,Volksmuziek,Vereniging,
info@muziekles-accordeon.nl,,Muziekles Accordeon,,Eindhoven,,Noord-Brabant,NL,,,Teacher,nl,Accordeon,Muziekleraar,
balfolk.rotterdam@gmail.com,,Balfolk Rotterdam,,Rotterdam,,Zuid-Holland,NL,,,Association,nl,Balfolk,Vereniging,
contact@concertina.pt,,Concertina Portugal,,Lisboa,,Nacional,PT,,,Association,pt,Concertina,Associação,
info@musicatradicional.pt,,Música Tradicional Portuguesa,,Porto,,Nacional,PT,,,Association,pt,Música tradicional,Associação,
concertina@minho.pt,,Concertina Minho,,Braga,,Norte,PT,,,Regional Association,pt,Concertina,Associação regional,
info@acordeao.pt,,Acordeão Portugal,,Lisboa,,Nacional,PT,,,Association,pt,Acordeão,Associação,
musica.popular@portugal.pt,,Música Popular Portuguesa,,Various,,Nacional,PT,,,Network,pt,Música popular,Rede,
concertina.coimbra@sapo.pt,,Concertina Coimbra,,Coimbra,,Centro,PT,,,Association,pt,Concertina,Associação,
info@rancho-folclorico.pt,,Rancho Folclórico,,Various,,Nacional,PT,,,Folk Dance,pt,Dança folclórica,Associação dança,
contact@festivalconcertina.pt,,Festival da Concertina,,Viana do Castelo,,Norte,PT,,,Festival,pt,Concertina,Festival,
musica.trad@lisboa.pt,,Música Tradicional Lisboa,,Lisboa,,Lisboa,PT,,,Association,pt,Música tradicional,Associação,
info@acordeonista.pt,,Acordeonistas Portugal,,Porto,,Nacional,PT,,,Association,pt,Acordeão,Associação,
concertina@alentejo.pt,,Concertina Alentejo,,Évora,,Alentejo,PT,,,Regional Association,pt,Concertina,Associação regional,
